[{"OBJECT_NAME":"YAOGAN-31 02C","OBJECT_ID":"2021-007E","EPOCH":"2026-03-09T23:15:50.360832","MEAN_MOTION":13.45441,"ECCENTRICITY":0.01674626,"INCLINATION":63.4047,"RA_OF_ASC_NODE":37.1202,"ARG_OF_PERICENTER":0.2529,"MEAN_ANOMALY":359.8553,"EPHEMERIS_TYPE":0,"CLASSIFICATION_TYPE":"U","NORAD_CAT_ID":47536,"ELEMENT_SET_NO":999,"REV_AT_EPOCH":25086,"BSTAR":0.00019769935,"MEAN_MOTION_DOT":3.7e-7,"MEAN_MOTION_DDOT":0},{"OBJECT_NAME":"COSMOS 1745","OBJECT_ID":"1986-037A","EPOCH":"2026-03-09T18:45:29.464128","MEAN_MOTION":13.74413184,"ECCENTRICITY":0.00325976,"INCLINATION":82.9626,"RA_OF_ASC_NODE":178.8767,"ARG_OF_PERICENTER":120.5745,"MEAN_ANOMALY":351.4404,"EPHEMERIS_TYPE":0,"CLASSIFICATION_TYPE":"U","NORAD_CAT_ID":16727,"ELEMENT_SET_NO":999,"REV_AT_EPOCH":99550,"BSTAR":7.440435e-5,"MEAN_MOTION_DOT":8.6e-7,"MEAN_MOTION_DDOT":0}]
